{"epoch":1784902576,"count":18312,"objects":[{"id":"26900","name":"INTELSAT 902","type":"PAYLOAD","l1":"1 26900U 01039A   26205.08864094 -.00000284  00000-0  00000-0 0  9999","l2":"2 26900   6.2066  71.3260 0004252  52.0678 160.2361  1.00271811 91065"},{"id":"27380","name":"INTELSAT 904","type":"PAYLOAD","l1":"1 27380U 02007A   26204.96247912 -.00000227  00000-0  00000-0 0  9995","l2":"2 27380   7.0088  68.7379 0005235  30.5663 157.4113  1.00273392 52133"},{"id":"27426","name":"DIRECTV 5 (TEMPO 1)","type":"PAYLOAD","l1":"1 27426U 02023A   26205.32283459 -.00000057  00000-0  00000-0 0  9992","l2":"2 27426   4.9696  74.8438 0003247  46.7629 186.5465  1.00272399 88498"},{"id":"27438","name":"INTELSAT 905","type":"PAYLOAD","l1":"1 27438U 02027A   26204.72774113  .00000092  00000-0  00000-0 0  9992","l2":"2 27438   6.8423  69.3541 0003614  52.3431 304.5410  1.00273211 51728"},{"id":"27445","name":"GALAXY 3C","type":"PAYLOAD","l1":"1 27445U 02030A   26205.33626722 -.00000151  00000-0  00000-0 0  9991","l2":"2 27445   3.8273  77.4977 0001882  29.7853 220.9810  1.00271454 46861"},{"id":"27513","name":"INTELSAT 906","type":"PAYLOAD","l1":"1 27513U 02041A   26205.11989179  .00000012  00000-0  00000-0 0  9998","l2":"2 27513   5.8926  72.4600 0003375  33.6623 303.0315  1.00271720 87392"},{"id":"27954","name":"HORIZONS 1 (GALAXY 13)","type":"PAYLOAD","l1":"1 27954U 03044A   26205.31349156  .00000136  00000-0  00000-0 0  9995","l2":"2 27954   1.5118  83.3778 0002086  35.5148 145.9956  1.00269262 46943"},{"id":"28358","name":"INTELSAT 1002","type":"PAYLOAD","l1":"1 28358U 04022A   26205.06641824 -.00000006  00000-0  00000-0 0  9997","l2":"2 28358   0.0605 253.0695 0000230 247.3872 184.2447  1.00272480 80920"},{"id":"28659","name":"DIRECTV 8","type":"PAYLOAD","l1":"1 28659U 05019A   26205.32070442  .00000007  00000-0  00000-0 0  9999","l2":"2 28659   0.0156  81.9859 0003239  44.0632 172.3919  1.00271408 77447"},{"id":"28702","name":"GALAXY 28 (IA 8)","type":"PAYLOAD","l1":"1 28702U 05022A   26205.24850453 -.00000198  00000-0  00000-0 0  9993","l2":"2 28702   3.3906  78.4707 0002306  44.0792 241.7812  1.00271415 52342"},{"id":"29236","name":"GALAXY 16","type":"PAYLOAD","l1":"1 29236U 06023A   26205.32896446 -.00000122  00000-0  00000-0 0  9996","l2":"2 29236   0.0280 123.0489 0002868   1.5084 196.9145  1.00272759 73348"},{"id":"29494","name":"DIRECTV 9S","type":"PAYLOAD","l1":"1 29494U 06043A   26205.32552708 -.00000111  00000-0  00000-0 0  9992","l2":"2 29494   2.5136  80.4541 0005237  36.0716 201.5046  1.00271957 51757"},{"id":"31307","name":"GALAXY 17","type":"PAYLOAD","l1":"1 31307U 07016B   26205.29471771 -.00000204  00000-0  00000-0 0  9998","l2":"2 31307   3.0622  79.4329 0003557  36.4394 207.2238  1.00272006 70179"},{"id":"32253","name":"INTELSAT 11 (PAS 11)","type":"PAYLOAD","l1":"1 32253U 07044B   26205.18447517 -.00000234  00000-0  00000-0 0  9992","l2":"2 32253   3.6587  78.2153 0004756  98.9465 154.2944  0.99051665 68818"},{"id":"32388","name":"HORIZONS 2","type":"PAYLOAD","l1":"1 32388U 07063B   26205.33234485 -.00000251  00000-0  00000-0 0  9996","l2":"2 32388   2.6948  80.1704 0003694  22.8973 244.8300  1.00271647 68180"},{"id":"32729","name":"DIRECTV 11","type":"PAYLOAD","l1":"1 32729U 08013A   26205.29118608 -.00000120  00000-0  00000-0 0  9999","l2":"2 32729   0.0097 284.7294 0000225 152.5234 230.3926  1.00272430 45966"},{"id":"32951","name":"GALAXY 18","type":"PAYLOAD","l1":"1 32951U 08024A   26205.28660169  .00000000  00000-0  00000-0 0  9997","l2":"2 32951   0.0235  61.4707 0003190  62.8954 157.8265  1.00269788 46223"},{"id":"33376","name":"GALAXY 19","type":"PAYLOAD","l1":"1 33376U 08045A   26205.02085501 -.00000134  00000-0  00000-0 0  9994","l2":"2 33376   0.0606 249.5690 0002761 244.6765  77.9991  1.00271780 65279"},{"id":"35493","name":"SIRIUS FM-5","type":"PAYLOAD","l1":"1 35493U 09034A   26205.01693882 -.00000195  00000-0  00000-0 0  9998","l2":"2 35493   0.0436 260.0747 0000828 141.3354 180.2467  1.00270498 47015"},{"id":"36097","name":"INTELSAT 14","type":"PAYLOAD","l1":"1 36097U 09064A   26205.24495118 -.00000268  00000-0  00000-0 0  9990","l2":"2 36097   0.0156  56.5932 0002603  66.9769 221.5735  1.00272324 60971"},{"id":"36106","name":"INTELSAT 15","type":"PAYLOAD","l1":"1 36106U 09067A   26205.14975341 -.00000180  00000-0  00000-0 0  9997","l2":"2 36106   0.0138  59.9310 0002426  62.3050 318.6981  1.00272017 41592"},{"id":"36131","name":"DIRECTV 12","type":"PAYLOAD","l1":"1 36131U 09075A   26205.32495211 -.00000098  00000-0  00000-0 0  9995","l2":"2 36131   0.0344 227.4270 0000220 305.4114 143.4666  1.00272090 46925"},{"id":"36397","name":"INTELSAT 16","type":"PAYLOAD","l1":"1 36397U 10006A   26205.29818340 -.00000239  00000-0  00000-0 0  9990","l2":"2 36397   0.0139  18.9855 0002166 100.3718 213.8080  1.00272073 60026"},{"id":"37185","name":"XM-5","type":"PAYLOAD","l1":"1 37185U 10053A   26205.19273865 -.00000018  00000-0  00000-0 0  9999","l2":"2 37185   0.0625 262.8848 0001194 313.0106  40.2037  1.00273023 57855"},{"id":"37238","name":"INTELSAT 17","type":"PAYLOAD","l1":"1 37238U 10065B   26205.19628041  .00000003  00000-0  00000-0 0  9994","l2":"2 37238   0.0196 102.0067 0002456  20.6250 315.9497  1.00272705 53616"},{"id":"37392","name":"INTELSAT NEW DAWN","type":"PAYLOAD","l1":"1 37392U 11016A   26205.24755119 -.00000222  00000-0  00000-0 0  9999","l2":"2 37392   1.8990  82.1720 0003986  43.1631 234.0422  1.00272357 53650"},{"id":"37834","name":"INTELSAT 18","type":"PAYLOAD","l1":"1 37834U 11056A   26205.28956642  .00000058  00000-0  00000-0 0  9998","l2":"2 37834   0.0390 257.9850 0002066 233.7847  94.4774  1.00273329 54183"},{"id":"38098","name":"INTELSAT 22","type":"PAYLOAD","l1":"1 38098U 12011A   26205.19628041 -.00000053  00000-0  00000-0 0  9998","l2":"2 38098   0.0096  23.8638 0002035 122.3515 298.4578  1.00271629  7552"},{"id":"38356","name":"INTELSAT 19","type":"PAYLOAD","l1":"1 38356U 12030A   26205.28679309 -.00000051  00000-0  00000-0 0  9997","l2":"2 38356   0.0156  49.7409 0003154  71.2127  90.2955  1.00272094 50825"},{"id":"38740","name":"INTELSAT 20","type":"PAYLOAD","l1":"1 38740U 12043A   26205.19628041 -.00000019  00000-0  00000-0 0  9999","l2":"2 38740   0.0131  80.0079 0001228 102.9188 258.1561  1.00272605 51114"},{"id":"38749","name":"INTELSAT 21","type":"PAYLOAD","l1":"1 38749U 12045A   26205.24235116 -.00000280  00000-0  00000-0 0  9993","l2":"2 38749   0.0295 274.4491 0001954 219.0004 197.7526  1.00270416 50895"}]}